[
  {
    "OBJECT_NAME": "STARLINK-1142",
    "OBJECT_ID": "20006BB",
    "EPOCH": "2025-11-11T08:00:03.000384",
    "MEAN_MOTION": 15.65548265,
    "ECCENTRICITY": 0.0007521,
    "INCLINATION": 53.0333,
    "RA_OF_ASC_NODE": 346.7907,
    "ARG_OF_PERICENTER": 34.8627,
    "MEAN_ANOMALY": 1.4684,
    "EPHEMERIS_TYPE": 0,
    "CLASSIFICATION_TYPE": "U",
    "NORAD_CAT_ID": 45093,
    "ELEMENT_SET_NO": 999,
    "REV_AT_EPOCH": 584,
    "BSTAR": 0.0015953,
    "MEAN_MOTION_DOT": 0.00166124,
    "MEAN_MOTION_DDOT": 0.0,
    "TLE_LINE1": "1 45093U 20006BB  25315.33336806  .00166124  00000+0  15953-2 0  9991",
    "TLE_LINE2": "2 45093  53.0333 346.7907 0007521  34.8627   1.4684 15.65548265  5848",
    "COMMENT": "Grouped by shell and plane from TLE"
  },
  {
    "OBJECT_NAME": "STARLINK-2660",
    "OBJECT_ID": "21040Y",
    "EPOCH": "2025-11-11T08:00:03.000384",
    "MEAN_MOTION": 15.74944642,
    "ECCENTRICITY": 0.0002624,
    "INCLINATION": 53.0535,
    "RA_OF_ASC_NODE": 343.3718,
    "ARG_OF_PERICENTER": 48.1427,
    "MEAN_ANOMALY": 30.2114,
    "EPHEMERIS_TYPE": 0,
    "CLASSIFICATION_TYPE": "U",
    "NORAD_CAT_ID": 48450,
    "ELEMENT_SET_NO": 999,
    "REV_AT_EPOCH": 575,
    "BSTAR": 0.00087044,
    "MEAN_MOTION_DOT": 0.00133212,
    "MEAN_MOTION_DDOT": 0.0,
    "TLE_LINE1": "1 48450U 21040Y   25315.33336806  .00133212  00000+0  87044-3 0  9993",
    "TLE_LINE2": "2 48450  53.0535 343.3718 0002624  48.1427  30.2114 15.74944642  5757",
    "COMMENT": "Grouped by shell and plane from TLE"
  },
  {
    "OBJECT_NAME": "STARLINK-30073",
    "OBJECT_ID": "23079T",
    "EPOCH": "2025-10-30T08:49:56.178048",
    "MEAN_MOTION": 15.80939139,
    "ECCENTRICITY": 0.0004211,
    "INCLINATION": 42.984,
    "RA_OF_ASC_NODE": 347.9403,
    "ARG_OF_PERICENTER": 95.1713,
    "MEAN_ANOMALY": 264.9639,
    "EPHEMERIS_TYPE": 0,
    "CLASSIFICATION_TYPE": "U",
    "NORAD_CAT_ID": 56840,
    "ELEMENT_SET_NO": 999,
    "REV_AT_EPOCH": 13453,
    "BSTAR": 0.0013688,
    "MEAN_MOTION_DOT": 0.00282873,
    "MEAN_MOTION_DDOT": 0.0,
    "TLE_LINE1": "1 56840U 23079T   25303.36801132  .00282873  00000+0  13688-2 0  9998",
    "TLE_LINE2": "2 56840  42.9840 347.9403 0004211  95.1713 264.9639 15.80939139134539",
    "COMMENT": "Grouped by shell and plane from TLE"
  },
  {
    "OBJECT_NAME": "STARLINK-11247 [DTC]",
    "OBJECT_ID": "24152A",
    "EPOCH": "2025-11-11T06:47:38.306400",
    "MEAN_MOTION": 15.69704708,
    "ECCENTRICITY": 0.0001132,
    "INCLINATION": 53.1584,
    "RA_OF_ASC_NODE": 340.2778,
    "ARG_OF_PERICENTER": 62.9043,
    "MEAN_ANOMALY": 297.209,
    "EPHEMERIS_TYPE": 0,
    "CLASSIFICATION_TYPE": "U",
    "NORAD_CAT_ID": 60720,
    "ELEMENT_SET_NO": 999,
    "REV_AT_EPOCH": 7023,
    "BSTAR": 2.3551000000000002e-05,
    "MEAN_MOTION_DOT": 2.265e-05,
    "MEAN_MOTION_DDOT": 0.0,
    "TLE_LINE1": "1 60720U 24152A   25315.28308225  .00002265  00000+0  23551-4 0  9999",
    "TLE_LINE2": "2 60720  53.1584 340.2778 0001132  62.9043 297.2090 15.69704708 70233",
    "COMMENT": "Grouped by shell and plane from TLE"
  },
  {
    "OBJECT_NAME": "STARLINK-11259 [DTC]",
    "OBJECT_ID": "24152B",
    "EPOCH": "2025-11-11T06:40:34.149792",
    "MEAN_MOTION": 15.69696342,
    "ECCENTRICITY": 0.0001508,
    "INCLINATION": 53.1591,
    "RA_OF_ASC_NODE": 340.2449,
    "ARG_OF_PERICENTER": 103.8417,
    "MEAN_ANOMALY": 256.2769,
    "EPHEMERIS_TYPE": 0,
    "CLASSIFICATION_TYPE": "U",
    "NORAD_CAT_ID": 60721,
    "ELEMENT_SET_NO": 999,
    "REV_AT_EPOCH": 7023,
    "BSTAR": 2.8545e-05,
    "MEAN_MOTION_DOT": 2.868e-05,
    "MEAN_MOTION_DDOT": 0.0,
    "TLE_LINE1": "1 60721U 24152B   25315.27817303  .00002868  00000+0  28545-4 0  9998",
    "TLE_LINE2": "2 60721  53.1591 340.2449 0001508 103.8417 256.2769 15.69696342 70236",
    "COMMENT": "Grouped by shell and plane from TLE"
  },
  {
    "OBJECT_NAME": "STARLINK-11188 [DTC]",
    "OBJECT_ID": "24152C",
    "EPOCH": "2025-11-11T06:33:30.925440",
    "MEAN_MOTION": 15.69703435,
    "ECCENTRICITY": 0.0001464,
    "INCLINATION": 53.1574,
    "RA_OF_ASC_NODE": 340.2106,
    "ARG_OF_PERICENTER": 70.6556,
    "MEAN_ANOMALY": 289.462,
    "EPHEMERIS_TYPE": 0,
    "CLASSIFICATION_TYPE": "U",
    "NORAD_CAT_ID": 60722,
    "ELEMENT_SET_NO": 999,
    "REV_AT_EPOCH": 7035,
    "BSTAR": 2.2013e-05,
    "MEAN_MOTION_DOT": 2.078e-05,
    "MEAN_MOTION_DDOT": 0.0,
    "TLE_LINE1": "1 60722U 24152C   25315.27327460  .00002078  00000+0  22013-4 0  9996",
    "TLE_LINE2": "2 60722  53.1574 340.2106 0001464  70.6556 289.4620 15.69703435 70353",
    "COMMENT": "Grouped by shell and plane from TLE"
  },
  {
    "OBJECT_NAME": "STARLINK-11272 [DTC]",
    "OBJECT_ID": "24152D",
    "EPOCH": "2025-11-11T06:19:23.681856",
    "MEAN_MOTION": 15.69696986,
    "ECCENTRICITY": 0.0001471,
    "INCLINATION": 53.1597,
    "RA_OF_ASC_NODE": 340.1472,
    "ARG_OF_PERICENTER": 71.2396,
    "MEAN_ANOMALY": 288.8781,
    "EPHEMERIS_TYPE": 0,
    "CLASSIFICATION_TYPE": "U",
    "NORAD_CAT_ID": 60723,
    "ELEMENT_SET_NO": 999,
    "REV_AT_EPOCH": 7023,
    "BSTAR": 2.0667e-05,
    "MEAN_MOTION_DOT": 1.914e-05,
    "MEAN_MOTION_DDOT": 0.0,
    "TLE_LINE1": "1 60723U 24152D   25315.26346854  .00001914  00000+0  20667-4 0  9995",
    "TLE_LINE2": "2 60723  53.1597 340.1472 0001471  71.2396 288.8781 15.69696986 70231",
    "COMMENT": "Grouped by shell and plane from TLE"
  },
  {
    "OBJECT_NAME": "STARLINK-11261 [DTC]",
    "OBJECT_ID": "24152E",
    "EPOCH": "2025-11-11T06:26:26.483712",
    "MEAN_MOTION": 15.69718268,
    "ECCENTRICITY": 0.0001236,
    "INCLINATION": 53.1575,
    "RA_OF_ASC_NODE": 340.1797,
    "ARG_OF_PERICENTER": 102.2237,
    "MEAN_ANOMALY": 257.8919,
    "EPHEMERIS_TYPE": 0,
    "CLASSIFICATION_TYPE": "U",
    "NORAD_CAT_ID": 60724,
    "ELEMENT_SET_NO": 999,
    "REV_AT_EPOCH": 7023,
    "BSTAR": 3.415e-05,
    "MEAN_MOTION_DOT": 3.552e-05,
    "MEAN_MOTION_DDOT": 0.0,
    "TLE_LINE1": "1 60724U 24152E   25315.26836208  .00003552  00000+0  34150-4 0  9995",
    "TLE_LINE2": "2 60724  53.1575 340.1797 0001236 102.2237 257.8919 15.69718268 70233",
    "COMMENT": "Grouped by shell and plane from TLE"
  },
  {
    "OBJECT_NAME": "STARLINK-11263 [DTC]",
    "OBJECT_ID": "24152F",
    "EPOCH": "2025-11-11T06:12:18.941184",
    "MEAN_MOTION": 15.69707142,
    "ECCENTRICITY": 8.65e-05,
    "INCLINATION": 53.1587,
    "RA_OF_ASC_NODE": 340.1158,
    "ARG_OF_PERICENTER": 92.5889,
    "MEAN_ANOMALY": 267.5228,
    "EPHEMERIS_TYPE": 0,
    "CLASSIFICATION_TYPE": "U",
    "NORAD_CAT_ID": 60725,
    "ELEMENT_SET_NO": 999,
    "REV_AT_EPOCH": 7023,
    "BSTAR": 3.2835e-05,
    "MEAN_MOTION_DOT": 3.391e-05,
    "MEAN_MOTION_DDOT": 0.0,
    "TLE_LINE1": "1 60725U 24152F   25315.25855256  .00003391  00000+0  32835-4 0  9998",
    "TLE_LINE2": "2 60725  53.1587 340.1158 0000865  92.5889 267.5228 15.69707142 70239",
    "COMMENT": "Grouped by shell and plane from TLE"
  },
  {
    "OBJECT_NAME": "STARLINK-11235 [DTC]",
    "OBJECT_ID": "24152G",
    "EPOCH": "2025-11-11T06:05:15.172512",
    "MEAN_MOTION": 15.69707413,
    "ECCENTRICITY": 0.0001098,
    "INCLINATION": 53.1584,
    "RA_OF_ASC_NODE": 340.0822,
    "ARG_OF_PERICENTER": 103.2331,
    "MEAN_ANOMALY": 256.881,
    "EPHEMERIS_TYPE": 0,
    "CLASSIFICATION_TYPE": "U",
    "NORAD_CAT_ID": 60726,
    "ELEMENT_SET_NO": 999,
    "REV_AT_EPOCH": 7036,
    "BSTAR": 3.3653000000000005e-05,
    "MEAN_MOTION_DOT": 3.49e-05,
    "MEAN_MOTION_DDOT": 0.0,
    "TLE_LINE1": "1 60726U 24152G   25315.25364783  .00003490  00000+0  33653-4 0  9998",
    "TLE_LINE2": "2 60726  53.1584 340.0822 0001098 103.2331 256.8810 15.69707413 70368",
    "COMMENT": "Grouped by shell and plane from TLE"
  },
  {
    "OBJECT_NAME": "STARLINK-11552 [DTC]",
    "OBJECT_ID": "25027A",
    "EPOCH": "2025-11-11T02:59:31.097472",
    "MEAN_MOTION": 15.70942189,
    "ECCENTRICITY": 0.0001007,
    "INCLINATION": 42.9998,
    "RA_OF_ASC_NODE": 342.4522,
    "ARG_OF_PERICENTER": 233.7653,
    "MEAN_ANOMALY": 126.3121,
    "EPHEMERIS_TYPE": 0,
    "CLASSIFICATION_TYPE": "U",
    "NORAD_CAT_ID": 62907,
    "ELEMENT_SET_NO": 999,
    "REV_AT_EPOCH": 4454,
    "BSTAR": 0.0024548,
    "MEAN_MOTION_DOT": 0.00328738,
    "MEAN_MOTION_DDOT": 0.0,
    "TLE_LINE1": "1 62907U 25027A   25315.12466548  .00328738  00000+0  24548-2 0  9997",
    "TLE_LINE2": "2 62907  42.9998 342.4522 0001007 233.7653 126.3121 15.70942189 44545",
    "COMMENT": "Grouped by shell and plane from TLE"
  },
  {
    "OBJECT_NAME": "STARLINK-11561 [DTC]",
    "OBJECT_ID": "25027B",
    "EPOCH": "2025-11-10T18:43:30.182016",
    "MEAN_MOTION": 15.70917887,
    "ECCENTRICITY": 5e-05,
    "INCLINATION": 43.0001,
    "RA_OF_ASC_NODE": 344.1539,
    "ARG_OF_PERICENTER": 289.8061,
    "MEAN_ANOMALY": 70.2753,
    "EPHEMERIS_TYPE": 0,
    "CLASSIFICATION_TYPE": "U",
    "NORAD_CAT_ID": 62908,
    "ELEMENT_SET_NO": 999,
    "REV_AT_EPOCH": 4445,
    "BSTAR": 0.0021456,
    "MEAN_MOTION_DOT": 0.00285473,
    "MEAN_MOTION_DDOT": 0.0,
    "TLE_LINE1": "1 62908U 25027B   25314.78021044  .00285473  00000+0  21456-2 0  9990",
    "TLE_LINE2": "2 62908  43.0001 344.1539 0000500 289.8061  70.2753 15.70917887 44457",
    "COMMENT": "Grouped by shell and plane from TLE"
  },
  {
    "OBJECT_NAME": "STARLINK-11567 [DTC]",
    "OBJECT_ID": "25027C",
    "EPOCH": "2025-11-11T04:54:00.959328",
    "MEAN_MOTION": 15.70877904,
    "ECCENTRICITY": 0.0005887,
    "INCLINATION": 43.0024,
    "RA_OF_ASC_NODE": 342.1922,
    "ARG_OF_PERICENTER": 279.9463,
    "MEAN_ANOMALY": 80.0741,
    "EPHEMERIS_TYPE": 0,
    "CLASSIFICATION_TYPE": "U",
    "NORAD_CAT_ID": 62909,
    "ELEMENT_SET_NO": 999,
    "REV_AT_EPOCH": 4451,
    "BSTAR": 0.0026756999999999996,
    "MEAN_MOTION_DOT": 0.00358859,
    "MEAN_MOTION_DDOT": 0.0,
    "TLE_LINE1": "1 62909U 25027C   25315.20417777  .00358859  00000+0  26757-2 0  9999",
    "TLE_LINE2": "2 62909  43.0024 342.1922 0005887 279.9463  80.0741 15.70877904 44514",
    "COMMENT": "Grouped by shell and plane from TLE"
  }
]